IRIDIUM 57              
1 25273U 98019B   24321.25772846  .00000775  00000+0  26243-3 0  9997
2 25273  86.3986 234.3903 0002312  82.6083 277.5376 14.35581941394239
IRIDIUM 63              
1 25286U 98021B   24321.08071087  .00000898  00000+0  30133-3 0  9993
2 25286  86.4015 171.4611 0001864  86.9691 273.1720 14.36187987393256
IRIDIUM 69              
1 25319U 98026A   24321.18554367  .00000960  00000+0  29560-3 0  9995
2 25319  86.4022 185.3282 0003465  41.7091 318.4372 14.40528223392398
IRIDIUM 71              
1 25320U 98026B   24321.15456378  .00000840  00000+0  25661-3 0  9992
2 25320  86.4017 180.0781 0004169  76.8564 283.3100 14.40769295392919
IRIDIUM 73              
1 25344U 98032C   24321.24387444  .00001382  00000+0  34366-3 0  9996
2 25344  86.4404 137.2357 0002149  69.5201 290.6235 14.51135206399672
IRIDIUM 82              
1 25467U 98051A   24321.23870420  .00030425  00000+0  12404-2 0  9991
2 25467  86.3773 213.2175 0111868  19.8375 340.7163 15.18641710391493
